[{"OBJECT_NAME":"ONEWEB-0602","OBJECT_ID":"2022-166AA","EPOCH":"2025-09-25T03:17:17.196576","MEAN_MOTION":13.2182474,"ECCENTRICITY":0.00015675,"INCLINATION":87.9191,"RA_OF_ASC_NODE":296.8977,"ARG_OF_PERICENTER":86.3413,"MEAN_ANOMALY":273.79,"EPHEMERIS_TYPE":0,"CLASSIFICATION_TYPE":"U","NORAD_CAT_ID":54666,"ELEMENT_SET_NO":999,"REV_AT_EPOCH":13653,"BSTAR":-9.8289996e-5,"MEAN_MOTION_DOT":-2.8e-7,"MEAN_MOTION_DDOT":0},{"OBJECT_NAME":"ONEWEB-0603","OBJECT_ID":"2022-166AB","EPOCH":"2025-09-25T03:25:12.875232","MEAN_MOTION":13.21837827,"ECCENTRICITY":0.00017932,"INCLINATION":87.919,"RA_OF_ASC_NODE":296.8304,"ARG_OF_PERICENTER":89.2992,"MEAN_ANOMALY":270.8347,"EPHEMERIS_TYPE":0,"CLASSIFICATION_TYPE":"U","NORAD_CAT_ID":54667,"ELEMENT_SET_NO":999,"REV_AT_EPOCH":13646,"BSTAR":0.0038344185,"MEAN_MOTION_DOT":1.597e-5,"MEAN_MOTION_DDOT":0},{"OBJECT_NAME":"ONEWEB-0604","OBJECT_ID":"2022-166AC","EPOCH":"2025-09-25T03:07:03.612288","MEAN_MOTION":13.21824701,"ECCENTRICITY":0.00018106,"INCLINATION":87.9189,"RA_OF_ASC_NODE":296.858,"ARG_OF_PERICENTER":86.5903,"MEAN_ANOMALY":273.5438,"EPHEMERIS_TYPE":0,"CLASSIFICATION_TYPE":"U","NORAD_CAT_ID":54668,"ELEMENT_SET_NO":999,"REV_AT_EPOCH":13642,"BSTAR":7.5124678e-5,"MEAN_MOTION_DOT":4.4e-7,"MEAN_MOTION_DDOT":0},{"OBJECT_NAME":"ONEWEB-0605","OBJECT_ID":"2022-166AD","EPOCH":"2025-09-25T02:57:58.370400","MEAN_MOTION":13.2182913,"ECCENTRICITY":0.00024387,"INCLINATION":87.9187,"RA_OF_ASC_NODE":296.889,"ARG_OF_PERICENTER":82.6875,"MEAN_ANOMALY":277.4536,"EPHEMERIS_TYPE":0,"CLASSIFICATION_TYPE":"U","NORAD_CAT_ID":54669,"ELEMENT_SET_NO":999,"REV_AT_EPOCH":13649,"BSTAR":0.00013826796,"MEAN_MOTION_DOT":7.0e-7,"MEAN_MOTION_DDOT":0},{"OBJECT_NAME":"ONEWEB-0606","OBJECT_ID":"2022-166AE","EPOCH":"2025-09-25T03:29:46.534272","MEAN_MOTION":13.21825605,"ECCENTRICITY":0.00019134,"INCLINATION":87.9186,"RA_OF_ASC_NODE":296.8952,"ARG_OF_PERICENTER":99.1298,"MEAN_ANOMALY":261.0052,"EPHEMERIS_TYPE":0,"CLASSIFICATION_TYPE":"U","NORAD_CAT_ID":54670,"ELEMENT_SET_NO":999,"REV_AT_EPOCH":13655,"BSTAR":-0.00011177531,"MEAN_MOTION_DOT":-3.3e-7,"MEAN_MOTION_DDOT":0},{"OBJECT_NAME":"ONEWEB-0607","OBJECT_ID":"2022-166AF","EPOCH":"2025-09-25T02:42:04.796928","MEAN_MOTION":13.21826304,"ECCENTRICITY":0.00019111,"INCLINATION":87.9185,"RA_OF_ASC_NODE":296.8658,"ARG_OF_PERICENTER":88.4534,"MEAN_ANOMALY":271.6819,"EPHEMERIS_TYPE":0,"CLASSIFICATION_TYPE":"U","NORAD_CAT_ID":54671,"ELEMENT_SET_NO":999,"REV_AT_EPOCH":13652,"BSTAR":0.00020449121,"MEAN_MOTION_DOT":9.7e-7,"MEAN_MOTION_DDOT":0},{"OBJECT_NAME":"ONEWEB-0608","OBJECT_ID":"2022-166AG","EPOCH":"2025-09-25T02:51:09.389952","MEAN_MOTION":13.21825522,"ECCENTRICITY":0.00021163,"INCLINATION":87.9184,"RA_OF_ASC_NODE":296.848,"ARG_OF_PERICENTER":79.4174,"MEAN_ANOMALY":280.7198,"EPHEMERIS_TYPE":0,"CLASSIFICATION_TYPE":"U","NORAD_CAT_ID":54672,"ELEMENT_SET_NO":999,"REV_AT_EPOCH":13653,"BSTAR":0.00018160765,"MEAN_MOTION_DOT":8.8e-7,"MEAN_MOTION_DDOT":0},{"OBJECT_NAME":"ONEWEB-0610","OBJECT_ID":"2022-166AH","EPOCH":"2025-09-25T02:23:54.975840","MEAN_MOTION":13.21825384,"ECCENTRICITY":0.00021863,"INCLINATION":87.9185,"RA_OF_ASC_NODE":296.8893,"ARG_OF_PERICENTER":77.2886,"MEAN_ANOMALY":282.8492,"EPHEMERIS_TYPE":0,"CLASSIFICATION_TYPE":"U","NORAD_CAT_ID":54673,"ELEMENT_SET_NO":999,"REV_AT_EPOCH":13643,"BSTAR":0.00019414443,"MEAN_MOTION_DOT":9.3e-7,"MEAN_MOTION_DDOT":0},{"OBJECT_NAME":"ONEWEB-0611","OBJECT_ID":"2022-166AJ","EPOCH":"2025-09-25T07:41:48.858432","MEAN_MOTION":13.21823885,"ECCENTRICITY":0.00017892,"INCLINATION":87.9183,"RA_OF_ASC_NODE":296.8412,"ARG_OF_PERICENTER":99.5904,"MEAN_ANOMALY":260.5432,"EPHEMERIS_TYPE":0,"CLASSIFICATION_TYPE":"U","NORAD_CAT_ID":54674,"ELEMENT_SET_NO":999,"REV_AT_EPOCH":13645,"BSTAR":-7.8501737e-5,"MEAN_MOTION_DOT":-1.9e-7,"MEAN_MOTION_DDOT":0},{"OBJECT_NAME":"ONEWEB-0612","OBJECT_ID":"2022-166AK","EPOCH":"2025-09-25T08:00:00.728064","MEAN_MOTION":13.21824948,"ECCENTRICITY":0.00019608,"INCLINATION":87.9185,"RA_OF_ASC_NODE":296.8166,"ARG_OF_PERICENTER":88.0078,"MEAN_ANOMALY":272.128,"EPHEMERIS_TYPE":0,"CLASSIFICATION_TYPE":"U","NORAD_CAT_ID":54675,"ELEMENT_SET_NO":999,"REV_AT_EPOCH":13644,"BSTAR":0.00021398509,"MEAN_MOTION_DOT":1.01e-6,"MEAN_MOTION_DDOT":0},{"OBJECT_NAME":"ONEWEB-0615","OBJECT_ID":"2022-166AL","EPOCH":"2025-09-25T02:05:43.939968","MEAN_MOTION":13.21824368,"ECCENTRICITY":0.00018833,"INCLINATION":87.9185,"RA_OF_ASC_NODE":296.8924,"ARG_OF_PERICENTER":93.2268,"MEAN_ANOMALY":266.9081,"EPHEMERIS_TYPE":0,"CLASSIFICATION_TYPE":"U","NORAD_CAT_ID":54676,"ELEMENT_SET_NO":999,"REV_AT_EPOCH":13642,"BSTAR":0.0002280246,"MEAN_MOTION_DOT":1.07e-6,"MEAN_MOTION_DDOT":0},{"OBJECT_NAME":"ONEWEB-0655","OBJECT_ID":"2022-166AM","EPOCH":"2025-09-25T03:16:06.184416","MEAN_MOTION":13.21850219,"ECCENTRICITY":0.00015986,"INCLINATION":87.9189,"RA_OF_ASC_NODE":296.8876,"ARG_OF_PERICENTER":89.5374,"MEAN_ANOMALY":270.5943,"EPHEMERIS_TYPE":0,"CLASSIFICATION_TYPE":"U","NORAD_CAT_ID":54677,"ELEMENT_SET_NO":999,"REV_AT_EPOCH":13642,"BSTAR":0.0069515289,"MEAN_MOTION_DOT":2.886e-5,"MEAN_MOTION_DDOT":0},{"OBJECT_NAME":"ONEWEB-0659","OBJECT_ID":"2022-166AN","EPOCH":"2025-09-25T01:52:06.964032","MEAN_MOTION":13.21824164,"ECCENTRICITY":0.000199,"INCLINATION":87.9184,"RA_OF_ASC_NODE":296.8997,"ARG_OF_PERICENTER":96.4214,"MEAN_ANOMALY":263.7147,"EPHEMERIS_TYPE":0,"CLASSIFICATION_TYPE":"U","NORAD_CAT_ID":54678,"ELEMENT_SET_NO":999,"REV_AT_EPOCH":13650,"BSTAR":3.9539165e-5,"MEAN_MOTION_DOT":2.9e-7,"MEAN_MOTION_DDOT":0},{"OBJECT_NAME":"ONEWEB-0685","OBJECT_ID":"2022-166AP","EPOCH":"2025-09-25T01:54:21.673728","MEAN_MOTION":13.21828786,"ECCENTRICITY":0.00019838,"INCLINATION":87.9186,"RA_OF_ASC_NODE":296.8956,"ARG_OF_PERICENTER":85.6113,"MEAN_ANOMALY":274.5248,"EPHEMERIS_TYPE":0,"CLASSIFICATION_TYPE":"U","NORAD_CAT_ID":54679,"ELEMENT_SET_NO":999,"REV_AT_EPOCH":13639,"BSTAR":0.00014728115,"MEAN_MOTION_DOT":7.4e-7,"MEAN_MOTION_DDOT":0},{"OBJECT_NAME":"ONEWEB-0712","OBJECT_ID":"2022-166AQ","EPOCH":"2025-09-25T06:52:41.943648","MEAN_MOTION":13.16592499,"ECCENTRICITY":0.00013719,"INCLINATION":87.8978,"RA_OF_ASC_NODE":281.5554,"ARG_OF_PERICENTER":82.9613,"MEAN_ANOMALY":277.1674,"EPHEMERIS_TYPE":0,"CLASSIFICATION_TYPE":"U","NORAD_CAT_ID":54680,"ELEMENT_SET_NO":999,"REV_AT_EPOCH":13720,"BSTAR":0.00015612032,"MEAN_MOTION_DOT":7.3e-7,"MEAN_MOTION_DDOT":0},{"OBJECT_NAME":"ONEWEB-0714","OBJECT_ID":"2022-166AR","EPOCH":"2025-09-25T02:03:27.501408","MEAN_MOTION":13.21823819,"ECCENTRICITY":0.00018149,"INCLINATION":87.9187,"RA_OF_ASC_NODE":296.8877,"ARG_OF_PERICENTER":87.5232,"MEAN_ANOMALY":272.611,"EPHEMERIS_TYPE":0,"CLASSIFICATION_TYPE":"U","NORAD_CAT_ID":54681,"ELEMENT_SET_NO":999,"REV_AT_EPOCH":13651,"BSTAR":6.741256e-5,"MEAN_MOTION_DOT":4.1e-7,"MEAN_MOTION_DDOT":0},{"OBJECT_NAME":"ONEWEB-0532","OBJECT_ID":"2023-004A","EPOCH":"2025-09-24T22:33:51.642720","MEAN_MOTION":13.17647439,"ECCENTRICITY":0.00020935,"INCLINATION":87.9071,"RA_OF_ASC_NODE":58.6108,"ARG_OF_PERICENTER":91.7557,"MEAN_ANOMALY":268.3814,"EPHEMERIS_TYPE":0,"CLASSIFICATION_TYPE":"U","NORAD_CAT_ID":55140,"ELEMENT_SET_NO":999,"REV_AT_EPOCH":13265,"BSTAR":4.3913264e-5,"MEAN_MOTION_DOT":3.0e-7,"MEAN_MOTION_DDOT":0},{"OBJECT_NAME":"ONEWEB-0533","OBJECT_ID":"2023-004B","EPOCH":"2025-09-25T07:18:34.967232","MEAN_MOTION":13.12444,"ECCENTRICITY":0.00015505,"INCLINATION":87.8927,"RA_OF_ASC_NODE":43.2845,"ARG_OF_PERICENTER":90.0056,"MEAN_ANOMALY":270.125,"EPHEMERIS_TYPE":0,"CLASSIFICATION_TYPE":"U","NORAD_CAT_ID":55141,"ELEMENT_SET_NO":999,"REV_AT_EPOCH":13331,"BSTAR":0.00068911911,"MEAN_MOTION_DOT":2.61e-6,"MEAN_MOTION_DDOT":0},{"OBJECT_NAME":"ONEWEB-0541","OBJECT_ID":"2023-004C","EPOCH":"2025-09-24T10:34:30.854496","MEAN_MOTION":13.11419465,"ECCENTRICITY":0.00017256,"INCLINATION":87.8794,"RA_OF_ASC_NODE":73.9829,"ARG_OF_PERICENTER":94.4337,"MEAN_ANOMALY":265.6989,"EPHEMERIS_TYPE":0,"CLASSIFICATION_TYPE":"U","NORAD_CAT_ID":55142,"ELEMENT_SET_NO":999,"REV_AT_EPOCH":13111,"BSTAR":0.00018685631,"MEAN_MOTION_DOT":7.9e-7,"MEAN_MOTION_DDOT":0},{"OBJECT_NAME":"ONEWEB-0543","OBJECT_ID":"2023-004D","EPOCH":"2025-09-24T14:18:20.634624","MEAN_MOTION":13.18686086,"ECCENTRICITY":0.00014515,"INCLINATION":87.9192,"RA_OF_ASC_NODE":28.2477,"ARG_OF_PERICENTER":98.47,"MEAN_ANOMALY":261.6597,"EPHEMERIS_TYPE":0,"CLASSIFICATION_TYPE":"U","NORAD_CAT_ID":55143,"ELEMENT_SET_NO":999,"REV_AT_EPOCH":13469,"BSTAR":0.00013264602,"MEAN_MOTION_DOT":6.5e-7,"MEAN_MOTION_DDOT":0},{"OBJECT_NAME":"ONEWEB-0544","OBJECT_ID":"2023-004E","EPOCH":"2025-09-24T14:08:49.649856","MEAN_MOTION":13.18684641,"ECCENTRICITY":0.00015707,"INCLINATION":87.919,"RA_OF_ASC_NODE":28.239,"ARG_OF_PERICENTER":105.2535,"MEAN_ANOMALY":254.8771,"EPHEMERIS_TYPE":0,"CLASSIFICATION_TYPE":"U","NORAD_CAT_ID":55144,"ELEMENT_SET_NO":999,"REV_AT_EPOCH":13469,"BSTAR":0.00028630835,"MEAN_MOTION_DOT":1.26e-6,"MEAN_MOTION_DDOT":0},{"OBJECT_NAME":"ONEWEB-0560","OBJECT_ID":"2023-004F","EPOCH":"2025-09-25T06:22:41.312352","MEAN_MOTION":13.18685574,"ECCENTRICITY":0.00015881,"INCLINATION":87.9201,"RA_OF_ASC_NODE":28.084,"ARG_OF_PERICENTER":108.3053,"MEAN_ANOMALY":251.8252,"EPHEMERIS_TYPE":0,"CLASSIFICATION_TYPE":"U","NORAD_CAT_ID":55145,"ELEMENT_SET_NO":999,"REV_AT_EPOCH":13479,"BSTAR":0.00021264176,"MEAN_MOTION_DOT":9.7e-7,"MEAN_MOTION_DDOT":0},{"OBJECT_NAME":"ONEWEB-0565","OBJECT_ID":"2023-004G","EPOCH":"2025-09-25T08:02:26.884032","MEAN_MOTION":13.18687243,"ECCENTRICITY":0.00020916,"INCLINATION":87.9195,"RA_OF_ASC_NODE":28.1239,"ARG_OF_PERICENTER":111.3989,"MEAN_ANOMALY":248.7367,"EPHEMERIS_TYPE":0,"CLASSIFICATION_TYPE":"U","NORAD_CAT_ID":55146,"ELEMENT_SET_NO":999,"REV_AT_EPOCH":13479,"BSTAR":0.00023638956,"MEAN_MOTION_DOT":1.06e-6,"MEAN_MOTION_DDOT":0}]
